{
    "links": {
        "self": "http://www.neowsapp.com/rest/v1/neo/3143082?api_key=iIulBulltgU6a56xZRHN4H3l9WmuAYTsLGpBGhQ2"
    },
    "id": "3143082",
    "neo_reference_id": "3143082",
    "name": "(2002 VS85)",
    "designation": "2002 VS85",
    "nasa_jpl_url": "http://ssd.jpl.nasa.gov/sbdb.cgi?sstr=3143082",
    "absolute_magnitude_h": 24.1,
    "estimated_diameter": {
        "kilometers": {
            "estimated_diameter_min": 0.040230458,
            "estimated_diameter_max": 0.0899580388
        },
        "meters": {
            "estimated_diameter_min": 40.2304579834,
            "estimated_diameter_max": 89.9580388169
        },
        "miles": {
            "estimated_diameter_min": 0.0249980399,
            "estimated_diameter_max": 0.0558973165
        },
        "feet": {
            "estimated_diameter_min": 131.9896957704,
            "estimated_diameter_max": 295.1379320721
        }
    },
    "is_potentially_hazardous_asteroid": false,
    "close_approach_data": [
        {
            "close_approach_date": "2001-06-03",
            "close_approach_date_full": "2001-Jun-03 16:34",
            "epoch_date_close_approach": 991586040000,
            "relative_velocity": {
                "kilometers_per_second": "29.9949795461",
                "kilometers_per_hour": "107981.9263661353",
                "miles_per_hour": "67095.76974678"
            },
            "miss_distance": {
                "astronomical": "0.3627849304",
                "lunar": "141.1233379256",
                "kilometers": "54271852.855938248",
                "miles": "33722965.6099859024"
            },
            "orbiting_body": "Earth"
        },
        {
            "close_approach_date": "2002-11-16",
            "close_approach_date_full": "2002-Nov-16 10:17",
            "epoch_date_close_approach": 1037441820000,
            "relative_velocity": {
                "kilometers_per_second": "20.7025260674",
                "kilometers_per_hour": "74529.0938426962",
                "miles_per_hour": "46309.480560202"
            },
            "miss_distance": {
                "astronomical": "0.0321570842",
                "lunar": "12.5091057538",
                "kilometers": "4810631.301730654",
                "miles": "2989187.6804208652"
            },
            "orbiting_body": "Earth"
        },
        {
            "close_approach_date": "2110-06-04",
            "close_approach_date_full": "2110-Jun-04 16:39",
            "epoch_date_close_approach": 4431343140000,
            "relative_velocity": {
                "kilometers_per_second": "29.7110542396",
                "kilometers_per_hour": "106959.7952626968",
                "miles_per_hour": "66460.6572286462"
            },
            "miss_distance": {
                "astronomical": "0.3534529365",
                "lunar": "137.4931922985",
                "kilometers": "52875806.445645255",
                "miles": "32855502.595424319"
            },
            "orbiting_body": "Earth"
        }
    ],
    "orbital_data": {
        "orbit_id": "8",
        "orbit_determination_date": "2017-04-06 09:14:38",
        "first_observation_date": "2002-11-12",
        "last_observation_date": "2002-11-15",
        "data_arc_in_days": 3,
        "observations_used": 36,
        "orbit_uncertainty": "8",
        "minimum_orbit_intersection": ".0317314",
        "jupiter_tisserand_invariant": "4.401",
        "epoch_osculation": "2452592.5",
        "eccentricity": ".5621184251920556",
        "semi_major_axis": "1.44118875031801",
        "inclination": "24.77567222945327",
        "ascending_node_longitude": "230.437968721013",
        "orbital_period": "631.9456402412645",
        "perihelion_distance": ".6310699995847437",
        "perihelion_argument": "275.7233279631975",
        "aphelion_distance": "2.251307501051277",
        "perihelion_time": "2452648.429264553900",
        "mean_anomaly": "328.1388177126801",
        "mean_motion": ".5696692517137376",
        "equinox": "J2000",
        "orbit_class": {
            "orbit_class_type": "APO",
            "orbit_class_description": "Near-Earth asteroid orbits which cross the Earth’s orbit similar to that of 1862 Apollo",
            "orbit_class_range": "a (semi-major axis) > 1.0 AU; q (perihelion) < 1.017 AU"
        }
    },
    "is_sentry_object": false
}